{"version": 0.6, "generator": "Overpass API 0.7.62.8 e802775f", "osm3s": {"timestamp_osm_base": "2025-12-26T17:34:15Z", "copyright": "The data included in this document is from www.openstreetmap.org. The data is made available under ODbL."}, "elements": [{"type": "node", "id": 2598102935, "lat": 45.0644785, "lon": 7.6678726}, {"type": "node", "id": 2598102936, "lat": 45.0643055, "lon": 7.6677536}, {"type": "node", "id": 2598102937, "lat": 45.0644166, "lon": 7.6674299}, {"type": "node", "id": 2598102938, "lat": 45.0645896, "lon": 7.6675489}, {"type": "node", "id": 2598105488, "lat": 45.0651264, "lon": 7.66705}, {"type": "node", "id": 2598105489, "lat": 45.0650518, "lon": 7.6672498}, {"type": "node", "id": 2598105490, "lat": 45.0649534, "lon": 7.6671762}, {"type": "node", "id": 2598105491, "lat": 45.0649659, "lon": 7.6671429}, {"type": "node", "id": 2598105492, "lat": 45.0649543, "lon": 7.6671343}, {"type": "node", "id": 2598105493, "lat": 45.0649858, "lon": 7.66705}, {"type": "node", "id": 2598105494, "lat": 45.0649673, "lon": 7.6669736}, {"type": "node", "id": 2598105495, "lat": 45.0648915, "lon": 7.6669216}, {"type": "node", "id": 2598105496, "lat": 45.0649433, "lon": 7.6667703}, {"type": "node", "id": 2598105497, "lat": 45.0650814, "lon": 7.666865}, {"type": "node", "id": 3092236302, "lat": 45.064813, "lon": 7.6662216}, {"type": "node", "id": 3092236303, "lat": 45.0650083, "lon": 7.6663567}, {"type": "node", "id": 3092236304, "lat": 45.0649474, "lon": 7.6665334}, {"type": "node", "id": 3092236305, "lat": 45.064752, "lon": 7.6663983}, {"type": "node", "id": 3092236306, "lat": 45.0648748, "lon": 7.6664831, "tags": {"addr:city": "Torino", "addr:country": "IT", "addr:housenumber": "12", "addr:postcode": "10128", "addr:street": "Via Giovanni Battista Bricherasio"}}, {"type": "node", "id": 3092236312, "lat": 45.0644145, "lon": 7.6671512}, {"type": "node", "id": 3092236313, "lat": 45.0643847, "lon": 7.6672349}, {"type": "node", "id": 3092236314, "lat": 45.064464, "lon": 7.6672914}, {"type": "node", "id": 3092236315, "lat": 45.0644937, "lon": 7.6672077}, {"type": "node", "id": 3092236316, "lat": 45.0646698, "lon": 7.6666517}, {"type": "node", "id": 3092236317, "lat": 45.0647957, "lon": 7.6667388}, {"type": "node", "id": 3092236318, "lat": 45.0647544, "lon": 7.6668582}, {"type": "node", "id": 3092236319, "lat": 45.0647777, "lon": 7.6668743}, {"type": "node", "id": 3092236320, "lat": 45.0647371, "lon": 7.666992}, {"type": "node", "id": 3092236321, "lat": 45.0647127, "lon": 7.6669751}, {"type": "node", "id": 3092236322, "lat": 45.0646689, "lon": 7.6671021}, {"type": "node", "id": 3092236323, "lat": 45.0645441, "lon": 7.6670157}, {"type": "node", "id": 3092236324, "lat": 45.064612, "lon": 7.666819, "tags": {"addr:city": "Torino", "addr:housenumber": "40", "addr:postcode": "10128", "addr:street": "Corso Stati Uniti"}}, {"type": "node", "id": 3092236325, "lat": 45.0649393, "lon": 7.6675904}, {"type": "node", "id": 3092236326, "lat": 45.0648551, "lon": 7.6675293}, {"type": "node", "id": 3092236327, "lat": 45.0646919, "lon": 7.6679801}, {"type": "node", "id": 3092236328, "lat": 45.0647761, "lon": 7.6680412}, {"type": "node", "id": 3092237929, "lat": 45.064868, "lon": 7.6677872, "tags": {"addr:city": "Torino", "addr:housenumber": "21 B", "addr:postcode": "10128", "addr:street": "Via Vincenzo Vela"}}, {"type": "node", "id": 3092237930, "lat": 45.0648462, "lon": 7.6674872}, {"type": "node", "id": 3092237931, "lat": 45.0648671, "lon": 7.6674261}, {"type": "node", "id": 3092237932, "lat": 45.0648083, "lon": 7.6673804}, {"type": "node", "id": 3092237933, "lat": 45.0648792, "lon": 7.6671997}, {"type": "node", "id": 3092237934, "lat": 45.0650166, "lon": 7.6673007}, {"type": "node", "id": 3092237935, "lat": 45.064996, "lon": 7.6673588}, {"type": "node", "id": 3092237936, "lat": 45.0650162, "lon": 7.6673731}, {"type": "node", "id": 3092237937, "lat": 45.0650085, "lon": 7.6673964, "tags": {"addr:city": "Torino", "addr:housenumber": "23", "addr:postcode": "10128", "addr:street": "Via Vincenzo Vela"}}, {"type": "node", "id": 3092237938, "lat": 45.0651008, "lon": 7.6669447, "tags": {"addr:city": "Torino", "addr:country": "IT", "addr:housenumber": "7", "addr:postcode": "10128", "addr:street": "Via Giovanni Battista Bricherasio"}}, {"type": "node", "id": 4735716509, "lat": 45.0650751, "lon": 7.6671874, "tags": {"addr:housenumber": "25a", "addr:postcode": "10128", "addr:street": "Via Vincenzo Vela"}}, {"type": "node", "id": 11282099206, "lat": 45.0649517, "lon": 7.667253}, {"type": "way", "id": 253956453, "nodes": [2598102935, 2598102936, 2598102937, 2598102938, 2598102935], "tags": {"building": "residential", "building:levels": "3"}}, {"type": "way", "id": 253959251, "nodes": [2598105488, 4735716509, 2598105489, 2598105490, 2598105491, 2598105492, 2598105493, 2598105494, 2598105495, 2598105496, 2598105497, 3092237938, 2598105488], "tags": {"building": "residential", "building:levels": "3", "roof:shape": "hipped"}}, {"type": "way", "id": 304649264, "nodes": [3092236302, 3092236303, 3092236304, 3092236306, 3092236305, 3092236302], "tags": {"building": "yes", "building:levels": "3"}}, {"type": "way", "id": 304649266, "nodes": [3092236312, 3092236313, 3092236314, 3092236315, 3092236312], "tags": {"building": "yes", "building:levels": "2"}}, {"type": "way", "id": 304649267, "nodes": [3092236316, 3092236317, 3092236318, 3092236319, 3092236320, 3092236321, 3092236322, 3092236323, 3092236324, 3092236316], "tags": {"building": "residential", "building:levels": "3"}}, {"type": "way", "id": 304649268, "nodes": [3092236325, 3092236326, 3092236327, 3092236328, 3092237929, 3092236325], "tags": {"building": "yes", "building:levels": "2"}}, {"type": "way", "id": 304649269, "nodes": [3092236325, 3092236326, 3092237930, 3092237931, 3092237932, 3092237933, 11282099206, 3092237934, 3092237935, 3092237936, 3092237937, 3092236325], "tags": {"addr:city": "Torino", "addr:housenumber": "23", "addr:postcode": "10128", "addr:street": "Via Vincenzo Vela", "building": "residential", "building:levels": "3"}}]}